{"fetched_at":"2026-03-30T13:17:50Z","count":15418,"tles":[{"name":"STARLINK-36055","line1":"1 66846U 25280AB  26087.92060947  .00002863  00000+0  24755-3 0  9991","line2":"2 66846  70.0006 286.0775 0001975 269.6914  90.4019 14.98343156 18960","category":"Starlink"}]}